ORBCOMM FM119           
1 41180U 15081B   24164.21906343  .00001229  00000+0  31000-3 0  9994
2 41180  46.9994 141.5761 0000911 190.9829 169.1036 14.56662567451757
ORBCOMM FM105           
1 41181U 15081C   24164.19462830  .00000682  00000+0  24122-3 0  9999
2 41181  47.0011 111.6027 0001053  98.3593 261.7406 14.44432162447354
ORBCOMM FM110           
1 41182U 15081D   24164.22478306  .00001397  00000+0  34657-3 0  9997
2 41182  47.0013 231.7584 0003004 269.1682  90.8859 14.56744984450554
ORBCOMM FM118           
1 41183U 15081E   24164.20241846  .00001404  00000+0  34832-3 0  9997
2 41183  47.0036 232.1795 0003050 267.0700  92.9836 14.56733945450551
ORBCOMM FM112           
1 41184U 15081F   24164.26393371  .00001493  00000+0  36870-3 0  9997
2 41184  46.9978 140.5662 0000672 144.4496 215.6433 14.56627910451751
ORBCOMM FM113           
1 41185U 15081G   24163.41809877  .00001915  00000+0  46229-3 0  9995
2 41185  46.9994 144.8237 0000519 192.8054 167.2818 14.56642797451638
